#aV2012 10 11  0  0  0.00000000     288 DD+AD WGS84 FIT  NGA
## 1709 345600.00000000   300.00000000 56211 0.0000000000000
+   32     1  2  3  4  5  6  7  8  9 10 11 12 13 14 15 16 17
+         18 19 20 21 22 23 24 25 26 27 28 29 30 31 32  0  0
+          0  0  0  0  0  0  0  0  0  0  0  0  0  0  0  0  0
+          0  0  0  0  0  0  0  0  0  0  0  0  0  0  0  0  0
+          0  0  0  0  0  0  0  0  0  0  0  0  0  0  0  0  0
++         2  2  2  2  2  2  2  2  2  2  2  2  2  2  2  2  2
++         2  2  2  2  2  2  2  2  2  2  2  2  2  2  2  0  0
++         0  0  0  0  0  0  0  0  0  0  0  0  0  0  0  0  0
++         0  0  0  0  0  0  0  0  0  0  0  0  0  0  0  0  0
++         0  0  0  0  0  0  0  0  0  0  0  0  0  0  0  0  0
%c cc cc ccc ccc cccc cccc cccc cccc ccccc ccccc ccccc ccccc
%c cc cc ccc ccc cccc cccc cccc cccc ccccc ccccc ccccc ccccc
%f  0.0000000  0.000000000  0.00000000000  0.000000000000000
%f  0.0000000  0.000000000  0.00000000000  0.000000000000000
%i    0    0    0    0      0      0      0      0         0
%i    0    0    0    0      0      0      0      0         0
/*      NGA, ST. LOUIS,MO.                                  
/*   EPHEMERIS COMPUTED FROM  1 DAYS OF DATA
/*   EPOCHA SMOOTHER  
/* CCCCCCCCCCCCCCCCCCCCCCCCCCCCCCCCCCCCCCCCCCCCCCCCCCCCCCCCC
*  2012 10 11 10 35  0.00000000                                                 
P  1  -4910.621061 -14537.149754 -21700.589677    277.316421                    
V  1  27032.882385  -5102.184263  -2646.359735      0.016426                    
P  2 -17013.029166  14155.355472  14455.951778    405.603101                    
V  2 -18574.454965    730.414642 -23318.078130      0.011301                    
P  3   9213.077972 -24056.035051   5416.747984    113.152597                    
V  3   2234.554954   8222.594807  30225.159860      0.050154                    
P  4 -26028.338939   5812.560827   1488.242047     12.883875                    
V  4  -2746.029143  -2836.825865 -30970.111233      0.111955                    
P  5  -5725.054448  15868.174131  20462.800088   -358.650909                    
V  5 -17688.010957 -19223.754865  10084.691239     -0.028043                    
P  6  13763.247909 -20111.940885  10262.862128    487.473995                    
V  6   -510.312817  13441.914735  27613.265512     -0.095117                    
P  7 -19772.546936  -7856.972687  16113.526795    132.095359                    
V  7  19766.127288  -4606.184806  21777.643654      0.044909                    
P  8 -26418.828484  -1229.515630   4910.388837      2.364174                    
V  8   5902.176138  -1508.950129  31387.828166      0.001530                    
P  9   -520.325791  15184.383934 -22341.045762    191.610382                    
V  9 -26549.249351   4765.903540   3894.172801      0.027299                    
P 10 -18516.308598  -1158.628991  18886.701406    -54.833552                    
V 10 -14320.665816 -19880.535493 -14643.544645     -0.012692                    
P 11    216.861976 -18064.948838 -19816.213727   -311.659482                    
V 11  22851.466434  -9457.589766   9373.269271     -0.038991                    
P 12  10093.835807  22788.047409  -9470.363799     95.583193                    
V 12  -8842.130683  -8184.826227 -28991.128292      0.020233                    
P 13  -9125.998335 -13288.781828  20950.292911    175.153623                    
V 13  12144.986415 -23983.930406  -9968.179601     -0.026201                    
P 14  16676.190570  -4437.388754 -19950.831437    214.597759                    
V 14  -9397.897939  24016.714588 -13213.339205      0.007868                    
P 15  -3158.159455  25324.695021  -6921.201283    -97.072693                    
V 15  -6010.116897   7333.408530  29827.976187     -0.008042                    
P 16   6015.793968 -15096.731733  20933.023813   -247.718054                    
V 16  16873.839427  20591.101005  10301.266479     -0.006915                    
P 17 -16770.141722   4846.988011 -19762.360043     88.839285                    
V 17   8378.662013 -24184.982242 -13158.498071     -0.033327                    
P 18  20263.076675  15592.468153  -7454.741694    219.155586                    
V 18   3772.271347   9773.689439  28849.493996      0.018244                    
P 19   7226.771928 -24727.929326  -5586.496676   -311.882051                    
V 19   5762.594338  -5127.985526  30940.009593     -0.035139                    
P 20 -12683.278292 -22119.912625  -7729.029846     70.257478                    
V 20   9085.168378   4700.116029 -28894.049024      0.009601                    
P 21  22416.508428   6424.314795  13728.342325   -255.183395                    
V 21 -15796.503382   5155.505224  23740.295570     -0.023684                    
P 22  19530.977286   2792.145136 -17650.027556    149.176472                    
V 22  12952.646350  18951.902982  17019.957127      0.007851                    
P 23  -1946.454341 -22431.547477  13830.266366    155.533787                    
V 23   8535.622545 -15622.701429 -24618.311196     -0.039012                    
P 24  26056.093091  -6046.168981   1646.152393      0.543069                    
V 24   2488.884893   2160.196537 -31496.927248      0.016622                    
P 25  18330.031870  19151.668731   2089.758926     46.070394                    
V 25   -107.701289   3644.217674 -31777.295127      0.015242                    
P 26 -12713.612654  22837.349724   2829.571275   -250.240460                    
V 26   -418.589229  -5038.447093  32178.145378      0.134054                    
P 27  -4507.475186  15091.828080 -20683.043800    440.817606                    
V 27 -27309.069615   4854.797917   9756.197243      0.041156                    
P 28 -19338.401173  -7684.032491 -16067.051252    193.917290                    
V 28 -11682.574166 -17917.155219  21665.389156      0.036821                    
P 29   8081.471545  16067.040963  19610.320129    364.913766                    
V 29 -10550.489753  22437.364058 -14030.107208      0.041481                    
P 30  14163.424875  -6751.044991  21069.768304   -369.868673                    
V 30  19383.321618  19654.090551  -6642.322568      0.179709                    
P 31  25085.024918  -7551.591162   5319.744883    279.987704                    
V 31   6663.791091    853.342081 -31095.793950      0.023267                    
P 32  -3439.081295 -22367.327377 -14107.947074   -497.041393                    
V 32  12111.865573  13557.963570 -23636.271304     -0.038548                    
EOF
